{
  "type": "FeatureCollection",
  "features": [
    {
      "type": "Feature",
      "properties": {
        "fill": "rgba(174, 174, 192, 1)"
      },
      "geometry": {
        "type": "Polygon",
        "coordinates": [
          [
            [
              -93.1417924,
              42.5022742
            ],
            [
              -92.9686958,
              42.2610265
            ],
            [
              -92.3122348,
              42.5022742
            ],
            [
              -92.8576526,
              42.7306006
            ],
            [
              -93.1417924,
              42.5022742
            ]
          ]
        ]
      }
    },
    {
      "type": "Feature",
      "properties": {
        "fill": "rgba(190, 180, 32, 1)"
      },
      "geometry": {
        "type": "Polygon",
        "coordinates": [
          [
            [
              -94.0954571,
              42.7066056
            ],
            [
              -94.2620218,
              42.3697026
            ],
            [
              -93.063409,
              42.1206782
            ],
            [
              -93.1515903,
              42.3214253
            ],
            [
              -93.3508148,
              42.6081294
            ],
            [
              -93.6872102,
              42.8671945
            ],
            [
              -94.0954571,
              42.7066056
            ]
          ]
        ]
      }
    }
  ]
}
