{
"type": "FeatureCollection",
"name": "schools",
"crs": { "type": "name", "properties": { "name": "urn:ogc:def:crs:EPSG::4269" } },
"features": [
{ "type": "Feature", "properties": { "STATEFP": "19", "COUNTYFP": "083", "COUNTYNS": "00465230", "AFFGEOID": "0500000US19083", "GEOID": "19083", "NAME": "Hardin", "LSAD": "06", "ALAND": 1474505075, "AWATER": 1776735, "counties_pop1990_2020_e2024": 16464 }, "geometry": { "type": "MultiPolygon", "coordinates": [ [ [ [ -93.499485, 42.5577 ], [ -93.027, 42.55681 ], [ -93.002902, 42.470638 ], [ -93.001674, 42.209267 ], [ -93.231722, 42.208886 ], [ -93.463043, 42.209302 ], [ -93.462635, 42.470802 ], [ -93.499485, 42.5577 ] ] ] ] } },
{ "type": "Feature", "properties": { "STATEFP": "19", "COUNTYFP": "141", "COUNTYNS": "00465259", "AFFGEOID": "0500000US19141", "GEOID": "19141", "NAME": "O'Brien", "LSAD": "06", "ALAND": 1484154162, "AWATER": 447448, "counties_pop1990_2020_e2024": 14260 }, "geometry": { "type": "MultiPolygon", "coordinates": [ [ [ [ -95.861914, 43.257566 ], [ -95.388078, 43.255221 ], [ -95.388182, 42.909897 ], [ -95.859377, 42.909097 ], [ -95.861914, 43.257566 ] ] ] ] } },
{ "type": "Feature", "properties": { "STATEFP": "19", "COUNTYFP": "081", "COUNTYNS": "00465229", "AFFGEOID": "0500000US19081", "GEOID": "19081", "NAME": "Hancock", "LSAD": "06", "ALAND": 1478895049, "AWATER": 5265568, "counties_pop1990_2020_e2024": 10616 }, "geometry": { "type": "MultiPolygon", "coordinates": [ [ [ [ -93.970415, 43.255358 ], [ -93.497635, 43.255468 ], [ -93.498617, 42.908512 ], [ -93.971238, 42.907762 ], [ -93.970415, 43.255358 ] ] ] ] } },
{ "type": "Feature", "properties": { "STATEFP": "19", "COUNTYFP": "019", "COUNTYNS": "00465199", "AFFGEOID": "0500000US19019", "GEOID": "19019", "NAME": "Buchanan", "LSAD": "06", "ALAND": 1479085972, "AWATER": 5223780, "counties_pop1990_2020_e2024": 20733 }, "geometry": { "type": "MultiPolygon", "coordinates": [ [ [ [ -92.081661, 42.642056 ], [ -91.607059, 42.643973 ], [ -91.596981, 42.296408 ], [ -91.831089, 42.299063 ], [ -92.064766, 42.297259 ], [ -92.064187, 42.468221 ], [ -92.081661, 42.642056 ] ] ] ] } },
{ "type": "Feature", "properties": { "STATEFP": "19", "COUNTYFP": "023", "COUNTYNS": "00465201", "AFFGEOID": "0500000US19023", "GEOID": "19023", "NAME": "Butler", "LSAD": "06", "ALAND": 1502553961, "AWATER": 4191852, "counties_pop1990_2020_e2024": 14156 }, "geometry": { "type": "MultiPolygon", "coordinates": [ [ [ [ -93.025144, 42.907549 ], [ -92.554211, 42.907112 ], [ -92.554492, 42.642314 ], [ -92.5543, 42.555854 ], [ -93.027, 42.55681 ], [ -93.025144, 42.907549 ] ] ] ] } },
{ "type": "Feature", "properties": { "STATEFP": "19", "COUNTYFP": "195", "COUNTYNS": "00465286", "AFFGEOID": "0500000US19195", "GEOID": "19195", "NAME": "Worth", "LSAD": "06", "ALAND": 1036314923, "AWATER": 4709127, "counties_pop1990_2020_e2024": 7307 }, "geometry": { "type": "MultiPolygon", "coordinates": [ [ [ [ -93.497351325220393, 43.4995307245117 ], [ -93.228861, 43.499567 ], [ -93.049192007816487, 43.499557480024599 ], [ -93.024347900541898, 43.499556163630004 ], [ -93.024143, 43.255538 ], [ -93.497635, 43.255468 ], [ -93.497351325220393, 43.4995307245117 ] ] ] ] } },
{ "type": "Feature", "properties": { "STATEFP": "19", "COUNTYFP": "063", "COUNTYNS": "00465220", "AFFGEOID": "0500000US19063", "GEOID": "19063", "NAME": "Emmet", "LSAD": "06", "ALAND": 1025328489, "AWATER": 17196405, "counties_pop1990_2020_e2024": 9162 }, "geometry": { "type": "MultiPolygon", "coordinates": [ [ [ [ -94.914613484713598, 43.500595872986096 ], [ -94.874235, 43.500557 ], [ -94.85455506761069, 43.500553419152197 ], [ -94.442849989718198, 43.500478507654698 ], [ -94.443137, 43.255014 ], [ -94.913723, 43.255054 ], [ -94.914613484713598, 43.500595872986096 ] ] ] ] } },
{ "type": "Feature", "properties": { "STATEFP": "19", "COUNTYFP": "027", "COUNTYNS": "00465203", "AFFGEOID": "0500000US19027", "GEOID": "19027", "NAME": "Carroll", "LSAD": "06", "ALAND": 1474835098, "AWATER": 2145349, "counties_pop1990_2020_e2024": 20407 }, "geometry": { "type": "MultiPolygon", "coordinates": [ [ [ [ -95.090851, 42.210405 ], [ -94.858412, 42.209692 ], [ -94.628806, 42.209396 ], [ -94.628724, 41.862763 ], [ -94.744876, 41.862394 ], [ -95.092861, 41.863374 ], [ -95.090851, 42.210405 ] ] ] ] } },
{ "type": "Feature", "properties": { "STATEFP": "19", "COUNTYFP": "121", "COUNTYNS": "00465249", "AFFGEOID": "0500000US19121", "GEOID": "19121", "NAME": "Madison", "LSAD": "06", "ALAND": 1452999207, "AWATER": 2983840, "counties_pop1990_2020_e2024": 17161 }, "geometry": { "type": "MultiPolygon", "coordinates": [ [ [ [ -94.241593, 41.503679 ], [ -93.896807, 41.503098 ], [ -93.790612, 41.511916 ], [ -93.789196, 41.162035 ], [ -94.014189, 41.156762 ], [ -94.241637, 41.157134 ], [ -94.241593, 41.503679 ] ] ] ] } },
{ "type": "Feature", "properties": { "STATEFP": "19", "COUNTYFP": "077", "COUNTYNS": "00465227", "AFFGEOID": "0500000US19077", "GEOID": "19077", "NAME": "Guthrie", "LSAD": "06", "ALAND": 1529698829, "AWATER": 6355534, "counties_pop1990_2020_e2024": 10774 }, "geometry": { "type": "MultiPolygon", "coordinates": [ [ [ [ -94.744876, 41.862394 ], [ -94.628724, 41.862763 ], [ -94.28034, 41.862999 ], [ -94.280057, 41.601312 ], [ -94.241356, 41.600971 ], [ -94.241593, 41.503679 ], [ -94.700629, 41.504148 ], [ -94.700745, 41.602184 ], [ -94.744204, 41.602185 ], [ -94.744876, 41.862394 ] ] ] ] } },
{ "type": "Feature", "properties": { "STATEFP": "19", "COUNTYFP": "021", "COUNTYNS": "00465200", "AFFGEOID": "0500000US19021", "GEOID": "19021", "NAME": "Buena Vista", "LSAD": "06", "ALAND": 1488981857, "AWATER": 13798139, "counties_pop1990_2020_e2024": 20816 }, "geometry": { "type": "MultiPolygon", "coordinates": [ [ [ [ -95.388182, 42.909897 ], [ -94.91389, 42.9097 ], [ -94.914485, 42.560309 ], [ -95.38801, 42.561742 ], [ -95.388182, 42.909897 ] ] ] ] } },
{ "type": "Feature", "properties": { "STATEFP": "19", "COUNTYFP": "007", "COUNTYNS": "00465193", "AFFGEOID": "0500000US19007", "GEOID": "19007", "NAME": "Appanoose", "LSAD": "06", "ALAND": 1287978861, "AWATER": 49088024, "counties_pop1990_2020_e2024": 12106 }, "geometry": { "type": "MultiPolygon", "coordinates": [ [ [ [ -93.097595, 40.898451 ], [ -92.639091, 40.898886 ], [ -92.637903293599493, 40.590956547097896 ], [ -92.686693, 40.589809 ], [ -92.714597263045007, 40.589582833836303 ], [ -92.941595, 40.587743 ], [ -93.097291203749805, 40.583823477325097 ], [ -93.097595, 40.898451 ] ] ] ] } },
{ "type": "Feature", "properties": { "STATEFP": "19", "COUNTYFP": "179", "COUNTYNS": "00465278", "AFFGEOID": "0500000US19179", "GEOID": "19179", "NAME": "Wapello", "LSAD": "06", "ALAND": 1118453189, "AWATER": 10836292, "counties_pop1990_2020_e2024": 35681 }, "geometry": { "type": "MultiPolygon", "coordinates": [ [ [ [ -92.640361, 41.161298 ], [ -92.410233, 41.161942 ], [ -92.179974, 41.162662 ], [ -92.179072, 40.89972 ], [ -92.639091, 40.898886 ], [ -92.640361, 41.161298 ] ] ] ] } },
{ "type": "Feature", "properties": { "STATEFP": "19", "COUNTYFP": "003", "COUNTYNS": "00465191", "AFFGEOID": "0500000US19003", "GEOID": "19003", "NAME": "Adams", "LSAD": "06", "ALAND": 1096686268, "AWATER": 5367875, "counties_pop1990_2020_e2024": 3606 }, "geometry": { "type": "MultiPolygon", "coordinates": [ [ [ [ -94.927587, 41.158508 ], [ -94.700589, 41.158085 ], [ -94.470603, 41.157566 ], [ -94.470779, 40.899502 ], [ -94.928459, 40.900653 ], [ -94.927587, 41.158508 ] ] ] ] } },
{ "type": "Feature", "properties": { "STATEFP": "19", "COUNTYFP": "033", "COUNTYNS": "00465206", "AFFGEOID": "0500000US19033", "GEOID": "19033", "NAME": "Cerro Gordo", "LSAD": "06", "ALAND": 1471890326, "AWATER": 17659667, "counties_pop1990_2020_e2024": 42493 }, "geometry": { "type": "MultiPolygon", "coordinates": [ [ [ [ -93.497635, 43.255468 ], [ -93.024143, 43.255538 ], [ -93.024092, 43.212812 ], [ -93.025144, 42.907549 ], [ -93.498617, 42.908512 ], [ -93.497635, 43.255468 ] ] ] ] } },
{ "type": "Feature", "properties": { "STATEFP": "19", "COUNTYFP": "041", "COUNTYNS": "00465625", "AFFGEOID": "0500000US19041", "GEOID": "19041", "NAME": "Clay", "LSAD": "06", "ALAND": 1469139461, "AWATER": 13866648, "counties_pop1990_2020_e2024": 16474 }, "geometry": { "type": "MultiPolygon", "coordinates": [ [ [ [ -95.388078, 43.255221 ], [ -94.913723, 43.255054 ], [ -94.91389, 42.9097 ], [ -95.388182, 42.909897 ], [ -95.388078, 43.255221 ] ] ] ] } },
{ "type": "Feature", "properties": { "STATEFP": "19", "COUNTYFP": "107", "COUNTYNS": "00465242", "AFFGEOID": "0500000US19107", "GEOID": "19107", "NAME": "Keokuk", "LSAD": "06", "ALAND": 1500056540, "AWATER": 1944346, "counties_pop1990_2020_e2024": 9855 }, "geometry": { "type": "MultiPolygon", "coordinates": [ [ [ [ -92.411995, 41.509548 ], [ -92.297494, 41.50979 ], [ -91.946043, 41.510749 ], [ -91.945571, 41.163578 ], [ -92.179974, 41.162662 ], [ -92.410233, 41.161942 ], [ -92.411995, 41.509548 ] ] ] ] } },
{ "type": "Feature", "properties": { "STATEFP": "19", "COUNTYFP": "071", "COUNTYNS": "00465224", "AFFGEOID": "0500000US19071", "GEOID": "19071", "NAME": "Fremont", "LSAD": "06", "ALAND": 1323915765, "AWATER": 14171394, "counties_pop1990_2020_e2024": 6494 }, "geometry": { "type": "MultiPolygon", "coordinates": [ [ [ [ -95.888697, 40.736292 ], [ -95.834156, 40.783016 ], [ -95.834243816714405, 40.783784387043099 ], [ -95.841309, 40.845604 ], [ -95.810709, 40.886681 ], [ -95.818727278569895, 40.897948066406499 ], [ -95.795156, 40.901625 ], [ -95.384964, 40.90155 ], [ -95.370618, 40.728241 ], [ -95.373925053398693, 40.580332377941495 ], [ -95.533182, 40.582249 ], [ -95.765645, 40.585208 ], [ -95.748626, 40.603355 ], [ -95.781909, 40.653272 ], [ -95.846034, 40.682605 ], [ -95.888697, 40.736292 ] ] ] ] } },
{ "type": "Feature", "properties": { "STATEFP": "19", "COUNTYFP": "039", "COUNTYNS": "00465209", "AFFGEOID": "0500000US19039", "GEOID": "19039", "NAME": "Clarke", "LSAD": "06", "ALAND": 1116716166, "AWATER": 1524746, "counties_pop1990_2020_e2024": 9524 }, "geometry": { "type": "MultiPolygon", "coordinates": [ [ [ [ -94.014189, 41.156762 ], [ -93.789196, 41.162035 ], [ -93.557556, 41.161271 ], [ -93.55654, 40.898295 ], [ -94.014803, 40.897031 ], [ -94.014189, 41.156762 ] ] ] ] } },
{ "type": "Feature", "properties": { "STATEFP": "19", "COUNTYFP": "035", "COUNTYNS": "00465207", "AFFGEOID": "0500000US19035", "GEOID": "19035", "NAME": "Cherokee", "LSAD": "06", "ALAND": 1494181171, "AWATER": 423160, "counties_pop1990_2020_e2024": 11658 }, "geometry": { "type": "MultiPolygon", "coordinates": [ [ [ [ -95.859377, 42.909097 ], [ -95.388182, 42.909897 ], [ -95.38801, 42.561742 ], [ -95.741611, 42.561285 ], [ -95.859949, 42.56062 ], [ -95.859377, 42.909097 ] ] ] ] } },
{ "type": "Feature", "properties": { "STATEFP": "19", "COUNTYFP": "051", "COUNTYNS": "00465214", "AFFGEOID": "0500000US19051", "GEOID": "19051", "NAME": "Davis", "LSAD": "06", "ALAND": 1300661911, "AWATER": 6904085, "counties_pop1990_2020_e2024": 9193 }, "geometry": { "type": "MultiPolygon", "coordinates": [ [ [ [ -92.639091, 40.898886 ], [ -92.179072, 40.89972 ], [ -92.17978, 40.600529 ], [ -92.350804186726393, 40.597257276376098 ], [ -92.453745, 40.595288 ], [ -92.637903293599493, 40.590956547097896 ], [ -92.639091, 40.898886 ] ] ] ] } },
{ "type": "Feature", "properties": { "STATEFP": "19", "COUNTYFP": "065", "COUNTYNS": "00465221", "AFFGEOID": "0500000US19065", "GEOID": "19065", "NAME": "Fayette", "LSAD": "06", "ALAND": 1892840952, "AWATER": 1320706, "counties_pop1990_2020_e2024": 19152 }, "geometry": { "type": "MultiPolygon", "coordinates": [ [ [ [ -92.081568, 42.907013 ], [ -92.081146, 43.082794 ], [ -91.605307, 43.081653 ], [ -91.607059, 42.643973 ], [ -92.081661, 42.642056 ], [ -92.081568, 42.907013 ] ] ] ] } },
{ "type": "Feature", "properties": { "STATEFP": "19", "COUNTYFP": "069", "COUNTYNS": "00465223", "AFFGEOID": "0500000US19069", "GEOID": "19069", "NAME": "Franklin", "LSAD": "06", "ALAND": 1507301086, "AWATER": 1428932, "counties_pop1990_2020_e2024": 10024 }, "geometry": { "type": "MultiPolygon", "coordinates": [ [ [ [ -93.498617, 42.908512 ], [ -93.025144, 42.907549 ], [ -93.027, 42.55681 ], [ -93.499485, 42.5577 ], [ -93.498617, 42.908512 ] ] ] ] } },
{ "type": "Feature", "properties": { "STATEFP": "19", "COUNTYFP": "125", "COUNTYNS": "00465251", "AFFGEOID": "0500000US19125", "GEOID": "19125", "NAME": "Marion", "LSAD": "06", "ALAND": 1436120673, "AWATER": 41487001, "counties_pop1990_2020_e2024": 34048 }, "geometry": { "type": "MultiPolygon", "coordinates": [ [ [ [ -93.328614, 41.507824 ], [ -92.871421, 41.508522 ], [ -92.869771, 41.161066 ], [ -93.099217, 41.160867 ], [ -93.327886, 41.160659 ], [ -93.328407, 41.490921 ], [ -93.328614, 41.507824 ] ] ] ] } },
{ "type": "Feature", "properties": { "STATEFP": "19", "COUNTYFP": "137", "COUNTYNS": "00465257", "AFFGEOID": "0500000US19137", "GEOID": "19137", "NAME": "Montgomery", "LSAD": "06", "ALAND": 1098405745, "AWATER": 2410443, "counties_pop1990_2020_e2024": 10063 }, "geometry": { "type": "MultiPolygon", "coordinates": [ [ [ [ -95.384349, 41.160011 ], [ -95.155851, 41.159236 ], [ -94.927587, 41.158508 ], [ -94.928459, 40.900653 ], [ -95.384964, 40.90155 ], [ -95.384349, 41.160011 ] ] ] ] } },
{ "type": "Feature", "properties": { "STATEFP": "19", "COUNTYFP": "149", "COUNTYNS": "00465263", "AFFGEOID": "0500000US19149", "GEOID": "19149", "NAME": "Plymouth", "LSAD": "06", "ALAND": 2234715206, "AWATER": 2176851, "counties_pop1990_2020_e2024": 25825 }, "geometry": { "type": "MultiPolygon", "coordinates": [ [ [ [ -96.621875, 42.779255 ], [ -96.577937, 42.827645 ], [ -96.537851, 42.878475 ], [ -96.540472329193292, 42.908595697956002 ], [ -95.859377, 42.909097 ], [ -95.859949, 42.56062 ], [ -96.480022478980004, 42.561324776560696 ], [ -96.526766, 42.641184 ], [ -96.591602, 42.688081 ], [ -96.624704, 42.725497 ], [ -96.621875, 42.779255 ] ] ] ] } },
{ "type": "Feature", "properties": { "STATEFP": "19", "COUNTYFP": "157", "COUNTYNS": "00465267", "AFFGEOID": "0500000US19157", "GEOID": "19157", "NAME": "Poweshiek", "LSAD": "06", "ALAND": 1514945162, "AWATER": 2961947, "counties_pop1990_2020_e2024": 18454 }, "geometry": { "type": "MultiPolygon", "coordinates": [ [ [ [ -92.765999, 41.862373 ], [ -92.298164, 41.862779 ], [ -92.297494, 41.50979 ], [ -92.411995, 41.509548 ], [ -92.756508, 41.508794 ], [ -92.766759, 41.601355 ], [ -92.765999, 41.862373 ] ] ] ] } },
{ "type": "Feature", "properties": { "STATEFP": "19", "COUNTYFP": "153", "COUNTYNS": "00465265", "AFFGEOID": "0500000US19153", "GEOID": "19153", "NAME": "Polk", "LSAD": "06", "ALAND": 1482025649, "AWATER": 50041575, "counties_pop1990_2020_e2024": 516185 }, "geometry": { "type": "MultiPolygon", "coordinates": [ [ [ [ -93.815721, 41.863419 ], [ -93.698032, 41.86337 ], [ -93.347933, 41.863104 ], [ -93.348681, 41.600999 ], [ -93.328614, 41.507824 ], [ -93.328407, 41.490921 ], [ -93.417688, 41.511542 ], [ -93.790612, 41.511916 ], [ -93.814282, 41.600456 ], [ -93.815721, 41.863419 ] ] ] ] } },
{ "type": "Feature", "properties": { "STATEFP": "19", "COUNTYFP": "001", "COUNTYNS": "00465190", "AFFGEOID": "0500000US19001", "GEOID": "19001", "NAME": "Adair", "LSAD": "06", "ALAND": 1474404193, "AWATER": 2597996, "counties_pop1990_2020_e2024": 7431 }, "geometry": { "type": "MultiPolygon", "coordinates": [ [ [ [ -94.700629, 41.504148 ], [ -94.241593, 41.503679 ], [ -94.241637, 41.157134 ], [ -94.470603, 41.157566 ], [ -94.700589, 41.158085 ], [ -94.700629, 41.504148 ] ] ] ] } },
{ "type": "Feature", "properties": { "STATEFP": "19", "COUNTYFP": "011", "COUNTYNS": "00465195", "AFFGEOID": "0500000US19011", "GEOID": "19011", "NAME": "Benton", "LSAD": "06", "ALAND": 1854696281, "AWATER": 5857893, "counties_pop1990_2020_e2024": 25799 }, "geometry": { "type": "MultiPolygon", "coordinates": [ [ [ [ -92.298792, 42.297527 ], [ -92.064766, 42.297259 ], [ -91.831089, 42.299063 ], [ -91.831379, 41.861851 ], [ -92.298164, 41.862779 ], [ -92.298792, 42.297527 ] ] ] ] } },
{ "type": "Feature", "properties": { "STATEFP": "19", "COUNTYFP": "089", "COUNTYNS": "00465233", "AFFGEOID": "0500000US19089", "GEOID": "19089", "NAME": "Howard", "LSAD": "06", "ALAND": 1225702839, "AWATER": 931478, "counties_pop1990_2020_e2024": 9360 }, "geometry": { "type": "MultiPolygon", "coordinates": [ [ [ [ -92.553128090518797, 43.500300036312296 ], [ -92.448947951437788, 43.500414988562696 ], [ -92.178863, 43.500713 ], [ -92.079801993128285, 43.500704885176596 ], [ -92.080976, 43.212947 ], [ -92.554381, 43.212813 ], [ -92.553128090518797, 43.500300036312296 ] ] ] ] } },
{ "type": "Feature", "properties": { "STATEFP": "19", "COUNTYFP": "097", "COUNTYNS": "00465237", "AFFGEOID": "0500000US19097", "GEOID": "19097", "NAME": "Jackson", "LSAD": "06", "ALAND": 1647322013, "AWATER": 35151955, "counties_pop1990_2020_e2024": 19390 }, "geometry": { "type": "MultiPolygon", "coordinates": [ [ [ [ -90.89802, 42.295236 ], [ -90.665551, 42.294699 ], [ -90.665029, 42.382155 ], [ -90.484345672716287, 42.381597778191896 ], [ -90.44632, 42.357041 ], [ -90.417125, 42.319943 ], [ -90.430884, 42.27823 ], [ -90.400653, 42.239293 ], [ -90.338169, 42.203321 ], [ -90.315696514271508, 42.193946432251394 ], [ -90.26908, 42.1745 ], [ -90.207421, 42.149109 ], [ -90.161159, 42.106372 ], [ -90.163446, 42.040407 ], [ -90.159682451122691, 42.033087257585898 ], [ -90.898373, 42.033548 ], [ -90.89802, 42.295236 ] ] ] ] } },
{ "type": "Feature", "properties": { "STATEFP": "19", "COUNTYFP": "127", "COUNTYNS": "00465252", "AFFGEOID": "0500000US19127", "GEOID": "19127", "NAME": "Marshall", "LSAD": "06", "ALAND": 1482776065, "AWATER": 1803080, "counties_pop1990_2020_e2024": 40392 }, "geometry": { "type": "MultiPolygon", "coordinates": [ [ [ [ -93.231722, 42.208886 ], [ -93.001674, 42.209267 ], [ -92.767463, 42.21014 ], [ -92.765999, 41.862373 ], [ -93.231858, 41.862711 ], [ -93.231722, 42.208886 ] ] ] ] } },
{ "type": "Feature", "properties": { "STATEFP": "19", "COUNTYFP": "053", "COUNTYNS": "00465215", "AFFGEOID": "0500000US19053", "GEOID": "19053", "NAME": "Decatur", "LSAD": "06", "ALAND": 1377567269, "AWATER": 4140764, "counties_pop1990_2020_e2024": 7656 }, "geometry": { "type": "MultiPolygon", "coordinates": [ [ [ [ -94.014803, 40.897031 ], [ -93.55654, 40.898295 ], [ -93.556896674271698, 40.579659485060496 ], [ -93.597352, 40.579496 ], [ -93.774344204030299, 40.577530453391098 ], [ -93.84093, 40.576791 ], [ -94.015492, 40.574073707009596 ], [ -94.014803, 40.897031 ] ] ] ] } },
{ "type": "Feature", "properties": { "STATEFP": "19", "COUNTYFP": "049", "COUNTYNS": "00465213", "AFFGEOID": "0500000US19049", "GEOID": "19049", "NAME": "Dallas", "LSAD": "06", "ALAND": 1523741156, "AWATER": 8511951, "counties_pop1990_2020_e2024": 115343 }, "geometry": { "type": "MultiPolygon", "coordinates": [ [ [ [ -94.28034, 41.862999 ], [ -94.164138, 41.863244 ], [ -93.815721, 41.863419 ], [ -93.814282, 41.600456 ], [ -93.790612, 41.511916 ], [ -93.896807, 41.503098 ], [ -94.241593, 41.503679 ], [ -94.241356, 41.600971 ], [ -94.280057, 41.601312 ], [ -94.28034, 41.862999 ] ] ] ] } },
{ "type": "Feature", "properties": { "STATEFP": "19", "COUNTYFP": "123", "COUNTYNS": "00465250", "AFFGEOID": "0500000US19123", "GEOID": "19123", "NAME": "Mahaska", "LSAD": "06", "ALAND": 1478527855, "AWATER": 6564805, "counties_pop1990_2020_e2024": 22034 }, "geometry": { "type": "MultiPolygon", "coordinates": [ [ [ [ -92.871421, 41.508522 ], [ -92.756508, 41.508794 ], [ -92.411995, 41.509548 ], [ -92.410233, 41.161942 ], [ -92.640361, 41.161298 ], [ -92.869771, 41.161066 ], [ -92.871421, 41.508522 ] ] ] ] } },
{ "type": "Feature", "properties": { "STATEFP": "19", "COUNTYFP": "185", "COUNTYNS": "00465281", "AFFGEOID": "0500000US19185", "GEOID": "19185", "NAME": "Wayne", "LSAD": "06", "ALAND": 1361013817, "AWATER": 4274254, "counties_pop1990_2020_e2024": 6622 }, "geometry": { "type": "MultiPolygon", "coordinates": [ [ [ [ -93.55654, 40.898295 ], [ -93.097595, 40.898451 ], [ -93.097291203749805, 40.583823477325097 ], [ -93.135802, 40.582854 ], [ -93.345442, 40.580514 ], [ -93.374386258763806, 40.580397032609199 ], [ -93.556896674271698, 40.579659485060496 ], [ -93.55654, 40.898295 ] ] ] ] } },
{ "type": "Feature", "properties": { "STATEFP": "19", "COUNTYFP": "045", "COUNTYNS": "00465211", "AFFGEOID": "0500000US19045", "GEOID": "19045", "NAME": "Clinton", "LSAD": "06", "ALAND": 1799818638, "AWATER": 39526958, "counties_pop1990_2020_e2024": 46015 }, "geometry": { "type": "MultiPolygon", "coordinates": [ [ [ [ -90.898373, 42.033548 ], [ -90.159682451122691, 42.033087257585898 ], [ -90.140613, 41.995999 ], [ -90.156902, 41.938181 ], [ -90.158153033709496, 41.929843227376097 ], [ -90.165065, 41.883777 ], [ -90.181401, 41.844647 ], [ -90.180643, 41.811979 ], [ -90.242368247397195, 41.782768725984596 ], [ -90.248631, 41.779805 ], [ -90.310708, 41.742214 ], [ -90.311856850416191, 41.728532892153602 ], [ -90.471723, 41.773603 ], [ -90.676373, 41.761023 ], [ -90.898373, 41.771392 ], [ -90.898484, 41.946245 ], [ -90.898373, 42.033548 ] ] ] ] } },
{ "type": "Feature", "properties": { "STATEFP": "19", "COUNTYFP": "031", "COUNTYNS": "00465205", "AFFGEOID": "0500000US19031", "GEOID": "19031", "NAME": "Cedar", "LSAD": "06", "ALAND": 1500798762, "AWATER": 6385832, "counties_pop1990_2020_e2024": 18231 }, "geometry": { "type": "MultiPolygon", "coordinates": [ [ [ [ -91.366221, 41.860069 ], [ -91.365877, 41.94741 ], [ -90.898484, 41.946245 ], [ -90.898373, 41.771392 ], [ -90.899853, 41.597133 ], [ -91.366448, 41.598373 ], [ -91.366221, 41.860069 ] ] ] ] } },
{ "type": "Feature", "properties": { "STATEFP": "19", "COUNTYFP": "115", "COUNTYNS": "00465246", "AFFGEOID": "0500000US19115", "GEOID": "19115", "NAME": "Louisa", "LSAD": "06", "ALAND": 1040584000, "AWATER": 40784330, "counties_pop1990_2020_e2024": 10630 }, "geometry": { "type": "MultiPolygon", "coordinates": [ [ [ [ -91.483995, 41.423848 ], [ -91.460384, 41.42418 ], [ -91.368521, 41.423178 ], [ -91.369332, 41.336063 ], [ -91.074415498019604, 41.333631569040698 ], [ -91.114186, 41.250029 ], [ -91.081445, 41.214429 ], [ -91.041536, 41.166138 ], [ -90.997906, 41.162564 ], [ -90.957246, 41.111085 ], [ -90.952265416482192, 41.072731749670005 ], [ -91.37071, 41.074112 ], [ -91.370298, 41.161247 ], [ -91.485717, 41.162405 ], [ -91.483995, 41.423848 ] ] ] ] } },
{ "type": "Feature", "properties": { "STATEFP": "19", "COUNTYFP": "173", "COUNTYNS": "00465275", "AFFGEOID": "0500000US19173", "GEOID": "19173", "NAME": "Taylor", "LSAD": "06", "ALAND": 1377618879, "AWATER": 7133364, "counties_pop1990_2020_e2024": 5825 }, "geometry": { "type": "MultiPolygon", "coordinates": [ [ [ [ -94.928459, 40.900653 ], [ -94.470779, 40.899502 ], [ -94.471207727123186, 40.570959458357002 ], [ -94.533878, 40.570739 ], [ -94.632025917694804, 40.571759587400003 ], [ -94.819978, 40.573714 ], [ -94.914897867361603, 40.574921169111299 ], [ -94.928529, 40.727399 ], [ -94.928459, 40.900653 ] ] ] ] } },
{ "type": "Feature", "properties": { "STATEFP": "19", "COUNTYFP": "117", "COUNTYNS": "00465247", "AFFGEOID": "0500000US19117", "GEOID": "19117", "NAME": "Lucas", "LSAD": "06", "ALAND": 1115257644, "AWATER": 9852833, "counties_pop1990_2020_e2024": 8758 }, "geometry": { "type": "MultiPolygon", "coordinates": [ [ [ [ -93.557556, 41.161271 ], [ -93.327886, 41.160659 ], [ -93.099217, 41.160867 ], [ -93.097595, 40.898451 ], [ -93.55654, 40.898295 ], [ -93.557556, 41.161271 ] ] ] ] } },
{ "type": "Feature", "properties": { "STATEFP": "19", "COUNTYFP": "025", "COUNTYNS": "00465202", "AFFGEOID": "0500000US19025", "GEOID": "19025", "NAME": "Calhoun", "LSAD": "06", "ALAND": 1475894613, "AWATER": 5873827, "counties_pop1990_2020_e2024": 9711 }, "geometry": { "type": "MultiPolygon", "coordinates": [ [ [ [ -94.914485, 42.560309 ], [ -94.443024, 42.558843 ], [ -94.443033, 42.473378 ], [ -94.397671, 42.4733 ], [ -94.397526, 42.209161 ], [ -94.628806, 42.209396 ], [ -94.858412, 42.209692 ], [ -94.856689, 42.473996 ], [ -94.914487, 42.47419 ], [ -94.914485, 42.560309 ] ] ] ] } },
{ "type": "Feature", "properties": { "STATEFP": "19", "COUNTYFP": "109", "COUNTYNS": "00465243", "AFFGEOID": "0500000US19109", "GEOID": "19109", "NAME": "Kossuth", "LSAD": "06", "ALAND": 2519361794, "AWATER": 4125592, "counties_pop1990_2020_e2024": 14408 }, "geometry": { "type": "MultiPolygon", "coordinates": [ [ [ [ -94.443137, 43.255014 ], [ -94.442849989718198, 43.500478507654698 ], [ -94.390597, 43.500469 ], [ -94.247967441555204, 43.500175476707597 ], [ -93.97076, 43.499605 ], [ -93.970415, 43.255358 ], [ -93.971238, 42.907762 ], [ -94.442954, 42.908073 ], [ -94.443137, 43.255014 ] ] ] ] } },
{ "type": "Feature", "properties": { "STATEFP": "19", "COUNTYFP": "047", "COUNTYNS": "00465212", "AFFGEOID": "0500000US19047", "GEOID": "19047", "NAME": "Crawford", "LSAD": "06", "ALAND": 1849742896, "AWATER": 2194271, "counties_pop1990_2020_e2024": 16378 }, "geometry": { "type": "MultiPolygon", "coordinates": [ [ [ [ -95.670822, 42.211408 ], [ -95.323497, 42.210932 ], [ -95.090851, 42.210405 ], [ -95.092861, 41.863374 ], [ -95.557277, 41.863449 ], [ -95.672771, 41.863147 ], [ -95.670822, 42.211408 ] ] ] ] } },
{ "type": "Feature", "properties": { "STATEFP": "19", "COUNTYFP": "093", "COUNTYNS": "00465235", "AFFGEOID": "0500000US19093", "GEOID": "19093", "NAME": "Ida", "LSAD": "06", "ALAND": 1117599829, "AWATER": 1406462, "counties_pop1990_2020_e2024": 6810 }, "geometry": { "type": "MultiPolygon", "coordinates": [ [ [ [ -95.741611, 42.561285 ], [ -95.38801, 42.561742 ], [ -95.387445, 42.474796 ], [ -95.322357, 42.474737 ], [ -95.323497, 42.210932 ], [ -95.670822, 42.211408 ], [ -95.669265, 42.474645 ], [ -95.741821, 42.474865 ], [ -95.741611, 42.561285 ] ] ] ] } },
{ "type": "Feature", "properties": { "STATEFP": "19", "COUNTYFP": "143", "COUNTYNS": "00465260", "AFFGEOID": "0500000US19143", "GEOID": "19143", "NAME": "Osceola", "LSAD": "06", "ALAND": 1032593813, "AWATER": 1835265, "counties_pop1990_2020_e2024": 6036 }, "geometry": { "type": "MultiPolygon", "coordinates": [ [ [ [ -95.860946201572304, 43.499992884905602 ], [ -95.834421, 43.499966 ], [ -95.486803, 43.500246 ], [ -95.454432238660601, 43.500322085250005 ], [ -95.387787594021887, 43.500478728907403 ], [ -95.388078, 43.255221 ], [ -95.861914, 43.257566 ], [ -95.860946201572304, 43.499992884905602 ] ] ] ] } },
{ "type": "Feature", "properties": { "STATEFP": "19", "COUNTYFP": "129", "COUNTYNS": "00465253", "AFFGEOID": "0500000US19129", "GEOID": "19129", "NAME": "Mills", "LSAD": "06", "ALAND": 1132950332, "AWATER": 8306493, "counties_pop1990_2020_e2024": 14717 }, "geometry": { "type": "MultiPolygon", "coordinates": [ [ [ [ -95.868688, 41.124698 ], [ -95.861898068209399, 41.160302348212703 ], [ -95.384349, 41.160011 ], [ -95.384964, 40.90155 ], [ -95.795156, 40.901625 ], [ -95.818727278569895, 40.897948066406499 ], [ -95.837774, 40.924712 ], [ -95.828329, 40.972378 ], [ -95.865878, 41.017403 ], [ -95.8647847640853, 41.052845504613501 ], [ -95.863839, 41.083507 ], [ -95.868688, 41.124698 ] ] ] ] } },
{ "type": "Feature", "properties": { "STATEFP": "19", "COUNTYFP": "171", "COUNTYNS": "00465274", "AFFGEOID": "0500000US19171", "GEOID": "19171", "NAME": "Tama", "LSAD": "06", "ALAND": 1867410528, "AWATER": 2769418, "counties_pop1990_2020_e2024": 16738 }, "geometry": { "type": "MultiPolygon", "coordinates": [ [ [ [ -92.76809, 42.29668 ], [ -92.53351, 42.297001 ], [ -92.298792, 42.297527 ], [ -92.298164, 41.862779 ], [ -92.765999, 41.862373 ], [ -92.767463, 42.21014 ], [ -92.76809, 42.29668 ] ] ] ] } },
{ "type": "Feature", "properties": { "STATEFP": "19", "COUNTYFP": "147", "COUNTYNS": "00465262", "AFFGEOID": "0500000US19147", "GEOID": "19147", "NAME": "Palo Alto", "LSAD": "06", "ALAND": 1460391649, "AWATER": 14437623, "counties_pop1990_2020_e2024": 8809 }, "geometry": { "type": "MultiPolygon", "coordinates": [ [ [ [ -94.913723, 43.255054 ], [ -94.443137, 43.255014 ], [ -94.442954, 42.908073 ], [ -94.91389, 42.9097 ], [ -94.913723, 43.255054 ] ] ] ] } },
{ "type": "Feature", "properties": { "STATEFP": "19", "COUNTYFP": "181", "COUNTYNS": "00465279", "AFFGEOID": "0500000US19181", "GEOID": "19181", "NAME": "Warren", "LSAD": "06", "ALAND": 1475873112, "AWATER": 9097100, "counties_pop1990_2020_e2024": 56343 }, "geometry": { "type": "MultiPolygon", "coordinates": [ [ [ [ -93.790612, 41.511916 ], [ -93.417688, 41.511542 ], [ -93.328407, 41.490921 ], [ -93.327886, 41.160659 ], [ -93.557556, 41.161271 ], [ -93.789196, 41.162035 ], [ -93.790612, 41.511916 ] ] ] ] } },
{ "type": "Feature", "properties": { "STATEFP": "19", "COUNTYFP": "099", "COUNTYNS": "00465238", "AFFGEOID": "0500000US19099", "GEOID": "19099", "NAME": "Jasper", "LSAD": "06", "ALAND": 1891760879, "AWATER": 6578379, "counties_pop1990_2020_e2024": 38107 }, "geometry": { "type": "MultiPolygon", "coordinates": [ [ [ [ -93.347933, 41.863104 ], [ -93.231858, 41.862711 ], [ -92.765999, 41.862373 ], [ -92.766759, 41.601355 ], [ -92.756508, 41.508794 ], [ -92.871421, 41.508522 ], [ -93.328614, 41.507824 ], [ -93.348681, 41.600999 ], [ -93.347933, 41.863104 ] ] ] ] } },
{ "type": "Feature", "properties": { "STATEFP": "19", "COUNTYFP": "135", "COUNTYNS": "00465256", "AFFGEOID": "0500000US19135", "GEOID": "19135", "NAME": "Monroe", "LSAD": "06", "ALAND": 1123320775, "AWATER": 1522790, "counties_pop1990_2020_e2024": 7373 }, "geometry": { "type": "MultiPolygon", "coordinates": [ [ [ [ -93.099217, 41.160867 ], [ -92.869771, 41.161066 ], [ -92.640361, 41.161298 ], [ -92.639091, 40.898886 ], [ -93.097595, 40.898451 ], [ -93.099217, 41.160867 ] ] ] ] } },
{ "type": "Feature", "properties": { "STATEFP": "19", "COUNTYFP": "183", "COUNTYNS": "00465280", "AFFGEOID": "0500000US19183", "GEOID": "19183", "NAME": "Washington", "LSAD": "06", "ALAND": 1473215987, "AWATER": 5381583, "counties_pop1990_2020_e2024": 22631 }, "geometry": { "type": "MultiPolygon", "coordinates": [ [ [ [ -91.946043, 41.510749 ], [ -91.829231, 41.511457 ], [ -91.519828, 41.51101 ], [ -91.483995, 41.423848 ], [ -91.485717, 41.162405 ], [ -91.716042, 41.162808 ], [ -91.945571, 41.163578 ], [ -91.946043, 41.510749 ] ] ] ] } },
{ "type": "Feature", "properties": { "STATEFP": "19", "COUNTYFP": "177", "COUNTYNS": "00465277", "AFFGEOID": "0500000US19177", "GEOID": "19177", "NAME": "Van Buren", "LSAD": "06", "ALAND": 1255646305, "AWATER": 14839918, "counties_pop1990_2020_e2024": 7217 }, "geometry": { "type": "MultiPolygon", "coordinates": [ [ [ [ -92.179072, 40.89972 ], [ -91.71818, 40.901087 ], [ -91.718787, 40.813544 ], [ -91.716654987681892, 40.603740139296001 ], [ -91.729115, 40.61364 ], [ -91.939292, 40.60615 ], [ -91.943117459685695, 40.606060586354005 ], [ -92.17978, 40.600529 ], [ -92.179072, 40.89972 ] ] ] ] } },
{ "type": "Feature", "properties": { "STATEFP": "19", "COUNTYFP": "085", "COUNTYNS": "00465231", "AFFGEOID": "0500000US19085", "GEOID": "19085", "NAME": "Harrison", "LSAD": "06", "ALAND": 1804814772, "AWATER": 12411273, "counties_pop1990_2020_e2024": 14626 }, "geometry": { "type": "MultiPolygon", "coordinates": [ [ [ [ -96.126821253465394, 41.866095247701601 ], [ -95.672771, 41.863147 ], [ -95.557277, 41.863449 ], [ -95.558143, 41.602383 ], [ -95.497793, 41.602333 ], [ -95.497997, 41.506074 ], [ -95.994020393011894, 41.506890640941499 ], [ -96.005079, 41.544004 ], [ -96.080493, 41.528199 ], [ -96.09182, 41.561086 ], [ -96.118105, 41.613495 ], [ -96.111483, 41.668548 ], [ -96.107937871746486, 41.676508989762098 ], [ -96.0876, 41.72218 ], [ -96.064537, 41.793002 ], [ -96.107911, 41.840339 ], [ -96.126821253465394, 41.866095247701601 ] ] ] ] } },
{ "type": "Feature", "properties": { "STATEFP": "19", "COUNTYFP": "037", "COUNTYNS": "00465208", "AFFGEOID": "0500000US19037", "GEOID": "19037", "NAME": "Chickasaw", "LSAD": "06", "ALAND": 1306221492, "AWATER": 3426577, "counties_pop1990_2020_e2024": 11719 }, "geometry": { "type": "MultiPolygon", "coordinates": [ [ [ [ -92.554381, 43.212813 ], [ -92.080976, 43.212947 ], [ -92.081146, 43.082794 ], [ -92.081568, 42.907013 ], [ -92.554211, 42.907112 ], [ -92.554381, 43.212813 ] ] ] ] } },
{ "type": "Feature", "properties": { "STATEFP": "19", "COUNTYFP": "105", "COUNTYNS": "00465241", "AFFGEOID": "0500000US19105", "GEOID": "19105", "NAME": "Jones", "LSAD": "06", "ALAND": 1490857912, "AWATER": 3768648, "counties_pop1990_2020_e2024": 21116 }, "geometry": { "type": "MultiPolygon", "coordinates": [ [ [ [ -91.363263, 42.296445 ], [ -91.130079, 42.295761 ], [ -90.89802, 42.295236 ], [ -90.898373, 42.033548 ], [ -90.898484, 41.946245 ], [ -91.365877, 41.94741 ], [ -91.363263, 42.296445 ] ] ] ] } },
{ "type": "Feature", "properties": { "STATEFP": "19", "COUNTYFP": "167", "COUNTYNS": "00465272", "AFFGEOID": "0500000US19167", "GEOID": "19167", "NAME": "Sioux", "LSAD": "06", "ALAND": 1988884987, "AWATER": 2798309, "counties_pop1990_2020_e2024": 36554 }, "geometry": { "type": "MultiPolygon", "coordinates": [ [ [ [ -96.559027342709697, 43.257555675618001 ], [ -96.531027, 43.259725 ], [ -95.861914, 43.257566 ], [ -95.859377, 42.909097 ], [ -96.540472329193292, 42.908595697956002 ], [ -96.541689, 42.922576 ], [ -96.500308, 42.959391 ], [ -96.520246, 42.977643 ], [ -96.492693, 43.005089 ], [ -96.511605, 43.039927 ], [ -96.458201, 43.067554 ], [ -96.452097516053698, 43.082552925194499 ], [ -96.439335, 43.113916 ], [ -96.458854, 43.143356 ], [ -96.475571, 43.221054 ], [ -96.522084, 43.22096 ], [ -96.552963, 43.247281 ], [ -96.559027342709697, 43.257555675618001 ] ] ] ] } },
{ "type": "Feature", "properties": { "STATEFP": "19", "COUNTYFP": "043", "COUNTYNS": "00465210", "AFFGEOID": "0500000US19043", "GEOID": "19043", "NAME": "Clayton", "LSAD": "06", "ALAND": 2016295993, "AWATER": 36695615, "counties_pop1990_2020_e2024": 16931 }, "geometry": { "type": "MultiPolygon", "coordinates": [ [ [ [ -91.605307, 43.081653 ], [ -91.174934913911187, 43.080260371845199 ], [ -91.174692, 43.038713 ], [ -91.159084305947488, 42.987477791322796 ], [ -91.155519, 42.975774 ], [ -91.138, 42.903772 ], [ -91.09882, 42.864421 ], [ -91.070716, 42.775502 ], [ -91.017239, 42.719566 ], [ -90.941567, 42.683844 ], [ -90.896962027158409, 42.674318056434302 ], [ -90.897415, 42.645714 ], [ -91.132766, 42.645844 ], [ -91.607059, 42.643973 ], [ -91.605307, 43.081653 ] ] ] ] } },
{ "type": "Feature", "properties": { "STATEFP": "19", "COUNTYFP": "191", "COUNTYNS": "00465284", "AFFGEOID": "0500000US19191", "GEOID": "19191", "NAME": "Winneshiek", "LSAD": "06", "ALAND": 1786666639, "AWATER": 745729, "counties_pop1990_2020_e2024": 19723 }, "geometry": { "type": "MultiPolygon", "coordinates": [ [ [ [ -92.080976, 43.212947 ], [ -92.079801993128285, 43.500704885176596 ], [ -91.824848, 43.500684 ], [ -91.730216997837701, 43.5006857009461 ], [ -91.610835000554388, 43.5006878467793 ], [ -91.605307, 43.081653 ], [ -92.081146, 43.082794 ], [ -92.080976, 43.212947 ] ] ] ] } },
{ "type": "Feature", "properties": { "STATEFP": "19", "COUNTYFP": "111", "COUNTYNS": "00465244", "AFFGEOID": "0500000US19111", "GEOID": "19111", "NAME": "Lee", "LSAD": "06", "ALAND": 1340448548, "AWATER": 55266733, "counties_pop1990_2020_e2024": 32376 }, "geometry": { "type": "MultiPolygon", "coordinates": [ [ [ [ -91.718787, 40.813544 ], [ -91.409453, 40.812905 ], [ -91.208185, 40.71358 ], [ -91.118222938397508, 40.699534650819103 ], [ -91.12082, 40.672777 ], [ -91.18546060870429, 40.638111812623492 ], [ -91.18698, 40.637297 ], [ -91.247851, 40.63839 ], [ -91.339719, 40.613488 ], [ -91.374252, 40.58259 ], [ -91.394475, 40.534543 ], [ -91.367876, 40.510479 ], [ -91.379907, 40.45211 ], [ -91.372921, 40.399108 ], [ -91.419422, 40.378264 ], [ -91.498093, 40.401926 ], [ -91.519134, 40.432822 ], [ -91.563844, 40.460988 ], [ -91.608347, 40.50004 ], [ -91.618999, 40.539084 ], [ -91.670993, 40.550937 ], [ -91.685381, 40.578892 ], [ -91.716654987681892, 40.603740139296001 ], [ -91.718787, 40.813544 ] ] ] ] } },
{ "type": "Feature", "properties": { "STATEFP": "19", "COUNTYFP": "055", "COUNTYNS": "00465216", "AFFGEOID": "0500000US19055", "GEOID": "19055", "NAME": "Delaware", "LSAD": "06", "ALAND": 1496189231, "AWATER": 3189565, "counties_pop1990_2020_e2024": 17609 }, "geometry": { "type": "MultiPolygon", "coordinates": [ [ [ [ -91.607059, 42.643973 ], [ -91.132766, 42.645844 ], [ -91.130079, 42.295761 ], [ -91.363263, 42.296445 ], [ -91.596981, 42.296408 ], [ -91.607059, 42.643973 ] ] ] ] } },
{ "type": "Feature", "properties": { "STATEFP": "19", "COUNTYFP": "103", "COUNTYNS": "00465240", "AFFGEOID": "0500000US19103", "GEOID": "19103", "NAME": "Johnson", "LSAD": "06", "ALAND": 1587640020, "AWATER": 26086669, "counties_pop1990_2020_e2024": 160080 }, "geometry": { "type": "MultiPolygon", "coordinates": [ [ [ [ -91.831379, 41.861851 ], [ -91.366221, 41.860069 ], [ -91.366448, 41.598373 ], [ -91.368521, 41.423178 ], [ -91.460384, 41.42418 ], [ -91.483995, 41.423848 ], [ -91.519828, 41.51101 ], [ -91.829231, 41.511457 ], [ -91.831379, 41.861851 ] ] ] ] } },
{ "type": "Feature", "properties": { "STATEFP": "19", "COUNTYFP": "165", "COUNTYNS": "00465271", "AFFGEOID": "0500000US19165", "GEOID": "19165", "NAME": "Shelby", "LSAD": "06", "ALAND": 1530110546, "AWATER": 1486125, "counties_pop1990_2020_e2024": 11821 }, "geometry": { "type": "MultiPolygon", "coordinates": [ [ [ [ -95.557277, 41.863449 ], [ -95.092861, 41.863374 ], [ -95.09252, 41.602055 ], [ -95.040748, 41.602152 ], [ -95.04077, 41.50469 ], [ -95.154722, 41.505211 ], [ -95.497997, 41.506074 ], [ -95.497793, 41.602333 ], [ -95.558143, 41.602383 ], [ -95.557277, 41.863449 ] ] ] ] } },
{ "type": "Feature", "properties": { "STATEFP": "19", "COUNTYFP": "193", "COUNTYNS": "00465285", "AFFGEOID": "0500000US19193", "GEOID": "19193", "NAME": "Woodbury", "LSAD": "06", "ALAND": 2260790985, "AWATER": 12793704, "counties_pop1990_2020_e2024": 107257 }, "geometry": { "type": "MultiPolygon", "coordinates": [ [ [ [ -96.49297, 42.517282 ], [ -96.476952, 42.556079 ], [ -96.480022478980004, 42.561324776560696 ], [ -95.859949, 42.56062 ], [ -95.741611, 42.561285 ], [ -95.741821, 42.474865 ], [ -95.669265, 42.474645 ], [ -95.670822, 42.211408 ], [ -96.337216094705894, 42.214849506895604 ], [ -96.336323, 42.218922 ], [ -96.336003, 42.264806 ], [ -96.351957192496002, 42.280894704543293 ], [ -96.407998, 42.337408 ], [ -96.411808, 42.410894 ], [ -96.381307, 42.461694 ], [ -96.445508, 42.49063 ], [ -96.477454, 42.509589 ], [ -96.49297, 42.517282 ] ] ] ] } },
{ "type": "Feature", "properties": { "STATEFP": "19", "COUNTYFP": "057", "COUNTYNS": "00465217", "AFFGEOID": "0500000US19057", "GEOID": "19057", "NAME": "Des Moines", "LSAD": "06", "ALAND": 1077770365, "AWATER": 35342781, "counties_pop1990_2020_e2024": 38411 }, "geometry": { "type": "MultiPolygon", "coordinates": [ [ [ [ -91.372095, 40.812631 ], [ -91.37071, 41.074112 ], [ -90.952265416482192, 41.072731749670005 ], [ -90.951894142681297, 41.069872735866397 ], [ -90.945324, 41.019279 ], [ -90.952233, 40.954047 ], [ -90.985462, 40.912141 ], [ -91.044653, 40.868356 ], [ -91.092993, 40.821079 ], [ -91.091703, 40.779708 ], [ -91.115735, 40.725168 ], [ -91.118222938397508, 40.699534650819103 ], [ -91.208185, 40.71358 ], [ -91.409453, 40.812905 ], [ -91.372095, 40.812631 ] ] ] ] } },
{ "type": "Feature", "properties": { "STATEFP": "19", "COUNTYFP": "015", "COUNTYNS": "00465197", "AFFGEOID": "0500000US19015", "GEOID": "19015", "NAME": "Boone", "LSAD": "06", "ALAND": 1480329003, "AWATER": 5358730, "counties_pop1990_2020_e2024": 26729 }, "geometry": { "type": "MultiPolygon", "coordinates": [ [ [ [ -94.164704, 42.20992 ], [ -93.93158, 42.209908 ], [ -93.69839, 42.209339 ], [ -93.698032, 41.86337 ], [ -93.815721, 41.863419 ], [ -94.164138, 41.863244 ], [ -94.164704, 42.20992 ] ] ] ] } },
{ "type": "Feature", "properties": { "STATEFP": "19", "COUNTYFP": "067", "COUNTYNS": "00465222", "AFFGEOID": "0500000US19067", "GEOID": "19067", "NAME": "Floyd", "LSAD": "06", "ALAND": 1296631084, "AWATER": 1942547, "counties_pop1990_2020_e2024": 15008 }, "geometry": { "type": "MultiPolygon", "coordinates": [ [ [ [ -93.024092, 43.212812 ], [ -92.554381, 43.212813 ], [ -92.554211, 42.907112 ], [ -93.025144, 42.907549 ], [ -93.024092, 43.212812 ] ] ] ] } },
{ "type": "Feature", "properties": { "STATEFP": "19", "COUNTYFP": "073", "COUNTYNS": "00465225", "AFFGEOID": "0500000US19073", "GEOID": "19073", "NAME": "Greene", "LSAD": "06", "ALAND": 1475303196, "AWATER": 4255702, "counties_pop1990_2020_e2024": 8662 }, "geometry": { "type": "MultiPolygon", "coordinates": [ [ [ [ -94.628806, 42.209396 ], [ -94.397526, 42.209161 ], [ -94.164704, 42.20992 ], [ -94.164138, 41.863244 ], [ -94.28034, 41.862999 ], [ -94.628724, 41.862763 ], [ -94.628806, 42.209396 ] ] ] ] } },
{ "type": "Feature", "properties": { "STATEFP": "19", "COUNTYFP": "189", "COUNTYNS": "00465283", "AFFGEOID": "0500000US19189", "GEOID": "19189", "NAME": "Winnebago", "LSAD": "06", "ALAND": 1037261948, "AWATER": 3182052, "counties_pop1990_2020_e2024": 10383 }, "geometry": { "type": "MultiPolygon", "coordinates": [ [ [ [ -93.97076, 43.499605 ], [ -93.648533031173599, 43.499535489675097 ], [ -93.576728, 43.49952 ], [ -93.497351325220393, 43.4995307245117 ], [ -93.497635, 43.255468 ], [ -93.970415, 43.255358 ], [ -93.97076, 43.499605 ] ] ] ] } },
{ "type": "Feature", "properties": { "STATEFP": "19", "COUNTYFP": "091", "COUNTYNS": "00465234", "AFFGEOID": "0500000US19091", "GEOID": "19091", "NAME": "Humboldt", "LSAD": "06", "ALAND": 1125014760, "AWATER": 3376515, "counties_pop1990_2020_e2024": 9617 }, "geometry": { "type": "MultiPolygon", "coordinates": [ [ [ [ -94.442954, 42.908073 ], [ -93.971238, 42.907762 ], [ -93.971714, 42.644707 ], [ -94.443083, 42.645164 ], [ -94.442954, 42.908073 ] ] ] ] } },
{ "type": "Feature", "properties": { "STATEFP": "19", "COUNTYFP": "005", "COUNTYNS": "00465192", "AFFGEOID": "0500000US19005", "GEOID": "19005", "NAME": "Allamakee", "LSAD": "06", "ALAND": 1655115645, "AWATER": 51094070, "counties_pop1990_2020_e2024": 14184 }, "geometry": { "type": "MultiPolygon", "coordinates": [ [ [ [ -91.610835000554388, 43.5006878467793 ], [ -91.491042, 43.50069 ], [ -91.217706, 43.50055 ], [ -91.232276, 43.450952 ], [ -91.210663357772702, 43.419441782903299 ], [ -91.199408, 43.403032 ], [ -91.207367, 43.373659 ], [ -91.154806, 43.334826 ], [ -91.107237, 43.313645 ], [ -91.05791, 43.253968 ], [ -91.087456, 43.221891 ], [ -91.134173, 43.174405 ], [ -91.175253, 43.134665 ], [ -91.174934913911187, 43.080260371845199 ], [ -91.605307, 43.081653 ], [ -91.610835000554388, 43.5006878467793 ] ] ] ] } },
{ "type": "Feature", "properties": { "STATEFP": "19", "COUNTYFP": "133", "COUNTYNS": "00465255", "AFFGEOID": "0500000US19133", "GEOID": "19133", "NAME": "Monona", "LSAD": "06", "ALAND": 1797637883, "AWATER": 12592243, "counties_pop1990_2020_e2024": 8429 }, "geometry": { "type": "MultiPolygon", "coordinates": [ [ [ [ -96.337216094705894, 42.214849506895604 ], [ -95.670822, 42.211408 ], [ -95.672771, 41.863147 ], [ -96.126821253465394, 41.866095247701601 ], [ -96.159098, 41.910057 ], [ -96.132537, 41.974625 ], [ -96.223611, 42.022652 ], [ -96.272877, 42.047238 ], [ -96.2689, 42.11359 ], [ -96.347752, 42.166806 ], [ -96.337216094705894, 42.214849506895604 ] ] ] ] } },
{ "type": "Feature", "properties": { "STATEFP": "19", "COUNTYFP": "139", "COUNTYNS": "00465258", "AFFGEOID": "0500000US19139", "GEOID": "19139", "NAME": "Muscatine", "LSAD": "06", "ALAND": 1132977163, "AWATER": 30262371, "counties_pop1990_2020_e2024": 42132 }, "geometry": { "type": "MultiPolygon", "coordinates": [ [ [ [ -91.368521, 41.423178 ], [ -91.366448, 41.598373 ], [ -90.899853, 41.597133 ], [ -90.783812, 41.596531 ], [ -90.786282, 41.452888 ], [ -90.867282, 41.448215 ], [ -90.924343, 41.42286 ], [ -90.966662, 41.430051 ], [ -91.027787, 41.423603 ], [ -91.065058, 41.369101 ], [ -91.071552, 41.339651 ], [ -91.074087623674089, 41.334320801920498 ], [ -91.074415498019604, 41.333631569040698 ], [ -91.369332, 41.336063 ], [ -91.368521, 41.423178 ] ] ] ] } },
{ "type": "Feature", "properties": { "STATEFP": "19", "COUNTYFP": "163", "COUNTYNS": "00465270", "AFFGEOID": "0500000US19163", "GEOID": "19163", "NAME": "Scott", "LSAD": "06", "ALAND": 1186437868, "AWATER": 26222175, "counties_pop1990_2020_e2024": 175601 }, "geometry": { "type": "MultiPolygon", "coordinates": [ [ [ [ -90.898373, 41.771392 ], [ -90.676373, 41.761023 ], [ -90.471723, 41.773603 ], [ -90.311856850416191, 41.728532892153602 ], [ -90.314687, 41.69483 ], [ -90.336729, 41.664532 ], [ -90.339528, 41.598633 ], [ -90.364128, 41.579633 ], [ -90.41583, 41.562933 ], [ -90.461432, 41.523533 ], [ -90.513134, 41.519533 ], [ -90.571136, 41.516332 ], [ -90.618537, 41.485032 ], [ -90.701159, 41.454743 ], [ -90.786282, 41.452888 ], [ -90.783812, 41.596531 ], [ -90.899853, 41.597133 ], [ -90.898373, 41.771392 ] ] ] ] } },
{ "type": "Feature", "properties": { "STATEFP": "19", "COUNTYFP": "159", "COUNTYNS": "00465268", "AFFGEOID": "0500000US19159", "GEOID": "19159", "NAME": "Ringgold", "LSAD": "06", "ALAND": 1386932362, "AWATER": 8723128, "counties_pop1990_2020_e2024": 4608 }, "geometry": { "type": "MultiPolygon", "coordinates": [ [ [ [ -94.470779, 40.899502 ], [ -94.014803, 40.897031 ], [ -94.015492, 40.574073707009596 ], [ -94.091085, 40.572897 ], [ -94.232240710208288, 40.572014612126594 ], [ -94.310724, 40.571524 ], [ -94.471207727123186, 40.570959458357002 ], [ -94.470779, 40.899502 ] ] ] ] } },
{ "type": "Feature", "properties": { "STATEFP": "19", "COUNTYFP": "155", "COUNTYNS": "00465266", "AFFGEOID": "0500000US19155", "GEOID": "19155", "NAME": "Pottawattamie", "LSAD": "06", "ALAND": 2461833316, "AWATER": 22328604, "counties_pop1990_2020_e2024": 93529 }, "geometry": { "type": "MultiPolygon", "coordinates": [ [ [ [ -95.994020393011894, 41.506890640941499 ], [ -95.497997, 41.506074 ], [ -95.154722, 41.505211 ], [ -95.155851, 41.159236 ], [ -95.384349, 41.160011 ], [ -95.861898068209399, 41.160302348212703 ], [ -95.856788, 41.187098 ], [ -95.90969, 41.184398 ], [ -95.909908491254797, 41.191282850827903 ], [ -95.911391, 41.237998 ], [ -95.890152, 41.278308 ], [ -95.92569, 41.322197 ], [ -95.92879, 41.370096 ], [ -95.927336242320095, 41.389987937459601 ], [ -95.922529, 41.455766 ], [ -95.982962, 41.469778 ], [ -95.994020393011894, 41.506890640941499 ] ] ] ] } },
{ "type": "Feature", "properties": { "STATEFP": "19", "COUNTYFP": "029", "COUNTYNS": "00465204", "AFFGEOID": "0500000US19029", "GEOID": "19029", "NAME": "Cass", "LSAD": "06", "ALAND": 1461422455, "AWATER": 1787165, "counties_pop1990_2020_e2024": 13024 }, "geometry": { "type": "MultiPolygon", "coordinates": [ [ [ [ -95.154722, 41.505211 ], [ -95.04077, 41.50469 ], [ -94.700629, 41.504148 ], [ -94.700589, 41.158085 ], [ -94.927587, 41.158508 ], [ -95.155851, 41.159236 ], [ -95.154722, 41.505211 ] ] ] ] } },
{ "type": "Feature", "properties": { "STATEFP": "19", "COUNTYFP": "059", "COUNTYNS": "00465218", "AFFGEOID": "0500000US19059", "GEOID": "19059", "NAME": "Dickinson", "LSAD": "06", "ALAND": 985542266, "AWATER": 60712925, "counties_pop1990_2020_e2024": 18158 }, "geometry": { "type": "MultiPolygon", "coordinates": [ [ [ [ -95.387787594021887, 43.500478728907403 ], [ -95.214938, 43.500885 ], [ -94.914613484713598, 43.500595872986096 ], [ -94.913723, 43.255054 ], [ -95.388078, 43.255221 ], [ -95.387787594021887, 43.500478728907403 ] ] ] ] } },
{ "type": "Feature", "properties": { "STATEFP": "19", "COUNTYFP": "009", "COUNTYNS": "00465194", "AFFGEOID": "0500000US19009", "GEOID": "19009", "NAME": "Audubon", "LSAD": "06", "ALAND": 1147264555, "AWATER": 1152260, "counties_pop1990_2020_e2024": 5562 }, "geometry": { "type": "MultiPolygon", "coordinates": [ [ [ [ -95.092861, 41.863374 ], [ -94.744876, 41.862394 ], [ -94.744204, 41.602185 ], [ -94.700745, 41.602184 ], [ -94.700629, 41.504148 ], [ -95.04077, 41.50469 ], [ -95.040748, 41.602152 ], [ -95.09252, 41.602055 ], [ -95.092861, 41.863374 ] ] ] ] } },
{ "type": "Feature", "properties": { "STATEFP": "19", "COUNTYFP": "075", "COUNTYNS": "00465226", "AFFGEOID": "0500000US19075", "GEOID": "19075", "NAME": "Grundy", "LSAD": "06", "ALAND": 1299797785, "AWATER": 94406, "counties_pop1990_2020_e2024": 12405 }, "geometry": { "type": "MultiPolygon", "coordinates": [ [ [ [ -93.027, 42.55681 ], [ -92.5543, 42.555854 ], [ -92.534015, 42.469592 ], [ -92.53351, 42.297001 ], [ -92.76809, 42.29668 ], [ -92.767463, 42.21014 ], [ -93.001674, 42.209267 ], [ -93.002902, 42.470638 ], [ -93.027, 42.55681 ] ] ] ] } },
{ "type": "Feature", "properties": { "STATEFP": "19", "COUNTYFP": "197", "COUNTYNS": "00465287", "AFFGEOID": "0500000US19197", "GEOID": "19197", "NAME": "Wright", "LSAD": "06", "ALAND": 1503269109, "AWATER": 4703964, "counties_pop1990_2020_e2024": 12729 }, "geometry": { "type": "MultiPolygon", "coordinates": [ [ [ [ -93.971714, 42.644707 ], [ -93.971238, 42.907762 ], [ -93.498617, 42.908512 ], [ -93.499485, 42.5577 ], [ -93.971583, 42.558139 ], [ -93.971714, 42.644707 ] ] ] ] } },
{ "type": "Feature", "properties": { "STATEFP": "19", "COUNTYFP": "113", "COUNTYNS": "00465245", "AFFGEOID": "0500000US19113", "GEOID": "19113", "NAME": "Linn", "LSAD": "06", "ALAND": 1857252376, "AWATER": 19631855, "counties_pop1990_2020_e2024": 231762 }, "geometry": { "type": "MultiPolygon", "coordinates": [ [ [ [ -91.831089, 42.299063 ], [ -91.596981, 42.296408 ], [ -91.363263, 42.296445 ], [ -91.365877, 41.94741 ], [ -91.366221, 41.860069 ], [ -91.831379, 41.861851 ], [ -91.831089, 42.299063 ] ] ] ] } },
{ "type": "Feature", "properties": { "STATEFP": "19", "COUNTYFP": "013", "COUNTYNS": "00465196", "AFFGEOID": "0500000US19013", "GEOID": "19013", "NAME": "Black Hawk", "LSAD": "06", "ALAND": 1465596400, "AWATER": 17635538, "counties_pop1990_2020_e2024": 132348 }, "geometry": { "type": "MultiPolygon", "coordinates": [ [ [ [ -92.554492, 42.642314 ], [ -92.081661, 42.642056 ], [ -92.064187, 42.468221 ], [ -92.064766, 42.297259 ], [ -92.298792, 42.297527 ], [ -92.53351, 42.297001 ], [ -92.534015, 42.469592 ], [ -92.5543, 42.555854 ], [ -92.554492, 42.642314 ] ] ] ] } },
{ "type": "Feature", "properties": { "STATEFP": "19", "COUNTYFP": "169", "COUNTYNS": "00465273", "AFFGEOID": "0500000US19169", "GEOID": "19169", "NAME": "Story", "LSAD": "06", "ALAND": 1483295645, "AWATER": 2449263, "counties_pop1990_2020_e2024": 102498 }, "geometry": { "type": "MultiPolygon", "coordinates": [ [ [ [ -93.69839, 42.209339 ], [ -93.463043, 42.209302 ], [ -93.231722, 42.208886 ], [ -93.231858, 41.862711 ], [ -93.347933, 41.863104 ], [ -93.698032, 41.86337 ], [ -93.69839, 42.209339 ] ] ] ] } },
{ "type": "Feature", "properties": { "STATEFP": "19", "COUNTYFP": "017", "COUNTYNS": "00465198", "AFFGEOID": "0500000US19017", "GEOID": "19017", "NAME": "Bremer", "LSAD": "06", "ALAND": 1127885577, "AWATER": 10166467, "counties_pop1990_2020_e2024": 25328 }, "geometry": { "type": "MultiPolygon", "coordinates": [ [ [ [ -92.554211, 42.907112 ], [ -92.081568, 42.907013 ], [ -92.081661, 42.642056 ], [ -92.554492, 42.642314 ], [ -92.554211, 42.907112 ] ] ] ] } },
{ "type": "Feature", "properties": { "STATEFP": "19", "COUNTYFP": "079", "COUNTYNS": "00465228", "AFFGEOID": "0500000US19079", "GEOID": "19079", "NAME": "Hamilton", "LSAD": "06", "ALAND": 1493784370, "AWATER": 1965341, "counties_pop1990_2020_e2024": 14856 }, "geometry": { "type": "MultiPolygon", "coordinates": [ [ [ [ -93.971583, 42.558139 ], [ -93.499485, 42.5577 ], [ -93.462635, 42.470802 ], [ -93.463043, 42.209302 ], [ -93.69839, 42.209339 ], [ -93.93158, 42.209908 ], [ -93.931684, 42.472011 ], [ -93.971583, 42.558139 ] ] ] ] } },
{ "type": "Feature", "properties": { "STATEFP": "19", "COUNTYFP": "095", "COUNTYNS": "00465236", "AFFGEOID": "0500000US19095", "GEOID": "19095", "NAME": "Iowa", "LSAD": "06", "ALAND": 1518911693, "AWATER": 2686847, "counties_pop1990_2020_e2024": 16423 }, "geometry": { "type": "MultiPolygon", "coordinates": [ [ [ [ -92.298164, 41.862779 ], [ -91.831379, 41.861851 ], [ -91.829231, 41.511457 ], [ -91.946043, 41.510749 ], [ -92.297494, 41.50979 ], [ -92.298164, 41.862779 ] ] ] ] } },
{ "type": "Feature", "properties": { "STATEFP": "19", "COUNTYFP": "187", "COUNTYNS": "00465282", "AFFGEOID": "0500000US19187", "GEOID": "19187", "NAME": "Webster", "LSAD": "06", "ALAND": 1853677021, "AWATER": 7190529, "counties_pop1990_2020_e2024": 36909 }, "geometry": { "type": "MultiPolygon", "coordinates": [ [ [ [ -94.443083, 42.645164 ], [ -93.971714, 42.644707 ], [ -93.971583, 42.558139 ], [ -93.931684, 42.472011 ], [ -93.93158, 42.209908 ], [ -94.164704, 42.20992 ], [ -94.397526, 42.209161 ], [ -94.397671, 42.4733 ], [ -94.443033, 42.473378 ], [ -94.443024, 42.558843 ], [ -94.443083, 42.645164 ] ] ] ] } },
{ "type": "Feature", "properties": { "STATEFP": "19", "COUNTYFP": "175", "COUNTYNS": "00465276", "AFFGEOID": "0500000US19175", "GEOID": "19175", "NAME": "Union", "LSAD": "06", "ALAND": 1097235806, "AWATER": 5575853, "counties_pop1990_2020_e2024": 11955 }, "geometry": { "type": "MultiPolygon", "coordinates": [ [ [ [ -94.470603, 41.157566 ], [ -94.241637, 41.157134 ], [ -94.014189, 41.156762 ], [ -94.014803, 40.897031 ], [ -94.470779, 40.899502 ], [ -94.470603, 41.157566 ] ] ] ] } },
{ "type": "Feature", "properties": { "STATEFP": "19", "COUNTYFP": "061", "COUNTYNS": "00465219", "AFFGEOID": "0500000US19061", "GEOID": "19061", "NAME": "Dubuque", "LSAD": "06", "ALAND": 1575487979, "AWATER": 21138781, "counties_pop1990_2020_e2024": 99242 }, "geometry": { "type": "MultiPolygon", "coordinates": [ [ [ [ -91.132766, 42.645844 ], [ -90.897415, 42.645714 ], [ -90.896962027158409, 42.674318056434302 ], [ -90.852497, 42.664822 ], [ -90.743677, 42.64556 ], [ -90.700856, 42.626445 ], [ -90.672727, 42.576599 ], [ -90.642843, 42.508481 ], [ -90.646727, 42.471904 ], [ -90.590416, 42.447493 ], [ -90.565248, 42.438742 ], [ -90.517516, 42.403019 ], [ -90.484345672716287, 42.381597778191896 ], [ -90.665029, 42.382155 ], [ -90.665551, 42.294699 ], [ -90.89802, 42.295236 ], [ -91.130079, 42.295761 ], [ -91.132766, 42.645844 ] ] ] ] } },
{ "type": "Feature", "properties": { "STATEFP": "19", "COUNTYFP": "145", "COUNTYNS": "00465261", "AFFGEOID": "0500000US19145", "GEOID": "19145", "NAME": "Page", "LSAD": "06", "ALAND": 1385497538, "AWATER": 1359120, "counties_pop1990_2020_e2024": 15038 }, "geometry": { "type": "MultiPolygon", "coordinates": [ [ [ [ -95.384964, 40.90155 ], [ -94.928459, 40.900653 ], [ -94.928529, 40.727399 ], [ -94.914897867361603, 40.574921169111299 ], [ -95.068921, 40.57688 ], [ -95.202266000830292, 40.578375628996 ], [ -95.335588, 40.579871 ], [ -95.373925053398693, 40.580332377941495 ], [ -95.370618, 40.728241 ], [ -95.384964, 40.90155 ] ] ] ] } },
{ "type": "Feature", "properties": { "STATEFP": "19", "COUNTYFP": "119", "COUNTYNS": "00465248", "AFFGEOID": "0500000US19119", "GEOID": "19119", "NAME": "Lyon", "LSAD": "06", "ALAND": 1522007137, "AWATER": 334399, "counties_pop1990_2020_e2024": 12378 }, "geometry": { "type": "MultiPolygon", "coordinates": [ [ [ [ -96.598928, 43.500457 ], [ -96.45326, 43.50039 ], [ -96.198484, 43.500335 ], [ -96.053162834510005, 43.500187708157497 ], [ -95.860946201572304, 43.499992884905602 ], [ -95.861914, 43.257566 ], [ -96.531027, 43.259725 ], [ -96.559027342709697, 43.257555675618001 ], [ -96.578823, 43.291095 ], [ -96.530392, 43.300034 ], [ -96.524289, 43.347214 ], [ -96.521572, 43.38564 ], [ -96.594254, 43.434153 ], [ -96.584603, 43.46961 ], [ -96.598928, 43.500457 ] ] ] ] } },
{ "type": "Feature", "properties": { "STATEFP": "19", "COUNTYFP": "151", "COUNTYNS": "00465264", "AFFGEOID": "0500000US19151", "GEOID": "19151", "NAME": "Pocahontas", "LSAD": "06", "ALAND": 1495047140, "AWATER": 3666530, "counties_pop1990_2020_e2024": 7006 }, "geometry": { "type": "MultiPolygon", "coordinates": [ [ [ [ -94.91389, 42.9097 ], [ -94.442954, 42.908073 ], [ -94.443083, 42.645164 ], [ -94.443024, 42.558843 ], [ -94.914485, 42.560309 ], [ -94.91389, 42.9097 ] ] ] ] } },
{ "type": "Feature", "properties": { "STATEFP": "19", "COUNTYFP": "161", "COUNTYNS": "00465269", "AFFGEOID": "0500000US19161", "GEOID": "19161", "NAME": "Sac", "LSAD": "06", "ALAND": 1489300198, "AWATER": 8569439, "counties_pop1990_2020_e2024": 9533 }, "geometry": { "type": "MultiPolygon", "coordinates": [ [ [ [ -95.38801, 42.561742 ], [ -94.914485, 42.560309 ], [ -94.914487, 42.47419 ], [ -94.856689, 42.473996 ], [ -94.858412, 42.209692 ], [ -95.090851, 42.210405 ], [ -95.323497, 42.210932 ], [ -95.322357, 42.474737 ], [ -95.387445, 42.474796 ], [ -95.38801, 42.561742 ] ] ] ] } },
{ "type": "Feature", "properties": { "STATEFP": "19", "COUNTYFP": "087", "COUNTYNS": "00465232", "AFFGEOID": "0500000US19087", "GEOID": "19087", "NAME": "Henry", "LSAD": "06", "ALAND": 1124799690, "AWATER": 5773350, "counties_pop1990_2020_e2024": 19361 }, "geometry": { "type": "MultiPolygon", "coordinates": [ [ [ [ -91.71818, 40.901087 ], [ -91.716042, 41.162808 ], [ -91.485717, 41.162405 ], [ -91.370298, 41.161247 ], [ -91.37071, 41.074112 ], [ -91.372095, 40.812631 ], [ -91.409453, 40.812905 ], [ -91.718787, 40.813544 ], [ -91.71818, 40.901087 ] ] ] ] } },
{ "type": "Feature", "properties": { "STATEFP": "19", "COUNTYFP": "131", "COUNTYNS": "00465254", "AFFGEOID": "0500000US19131", "GEOID": "19131", "NAME": "Mitchell", "LSAD": "06", "ALAND": 1215049039, "AWATER": 1118415, "counties_pop1990_2020_e2024": 10632 }, "geometry": { "type": "MultiPolygon", "coordinates": [ [ [ [ -93.024347900541898, 43.499556163630004 ], [ -92.870277, 43.499548 ], [ -92.553161, 43.5003 ], [ -92.553128090518797, 43.500300036312296 ], [ -92.554381, 43.212813 ], [ -93.024092, 43.212812 ], [ -93.024143, 43.255538 ], [ -93.024347900541898, 43.499556163630004 ] ] ] ] } },
{ "type": "Feature", "properties": { "STATEFP": "19", "COUNTYFP": "101", "COUNTYNS": "00465239", "AFFGEOID": "0500000US19101", "GEOID": "19101", "NAME": "Jefferson", "LSAD": "06", "ALAND": 1127999804, "AWATER": 3524817, "counties_pop1990_2020_e2024": 15781 }, "geometry": { "type": "MultiPolygon", "coordinates": [ [ [ [ -92.179974, 41.162662 ], [ -91.945571, 41.163578 ], [ -91.716042, 41.162808 ], [ -91.71818, 40.901087 ], [ -92.179072, 40.89972 ], [ -92.179974, 41.162662 ] ] ] ] } }
]
}
